     2.11           N: GPS NAV DATA                         RINEX VERSION / TYPE
teqc  2019Feb25                         20251110 01:01:36UTCPGM / RUN BY / DATE
Linux 2.6.32-573.12.1.x86_64|x86_64|gcc|Linux 64|=+         COMMENT
    3.0734D-08  0.0000D+00 -1.1921D-07  1.7881D-07          ION ALPHA
    1.4131D+05 -9.8304D+04  6.5536D+04 -3.9322D+05          ION BETA
   -1.862645149231D-09-2.664535259100D-15   233472     2392 DELTA-UTC: A0,A1,T,W
                                                            END OF HEADER
13 25 11 10  2  0  0.0 6.945678032935D-04-1.023181539495D-12 0.000000000000D+00
    8.000000000000D+01-7.125000000000D+01 3.876232889230D-09 2.244465754505D+00
   -3.807246685028D-06 9.841019054875D-03 9.233132004738D-06 5.153680810928D+03
    9.360000000000D+04 2.421438694000D-08 1.025946314211D+00-1.937150955200D-07
    9.750130248175D-01 2.093750000000D+02 1.007701407037D+00-7.593887744477D-09
    3.257278535868D-10 1.000000000000D+00 2.392000000000D+03 0.000000000000D+00
    2.000000000000D+00 0.000000000000D+00-1.164153218269D-08 8.000000000000D+01
    8.641800000000D+04 4.000000000000D+00
22 25 11 10  2  0  0.0-7.975054904819D-05 3.069544618484D-12 0.000000000000D+00
    5.000000000000D+01 1.440625000000D+01 4.706267463502D-09 3.062840265305D+00
    7.580965757370D-07 1.258130185306D-02 7.869675755501D-06 5.153633876801D+03
    9.360000000000D+04 1.005828380585D-07 3.063335736641D+00 2.328306436539D-07
    9.585463925848D-01 2.230625000000D+02-1.016830541039D+00-7.793181760159D-09
   -2.792973481413D-10 1.000000000000D+00 2.392000000000D+03 0.000000000000D+00
    2.000000000000D+00 0.000000000000D+00-1.117587089539D-08 5.000000000000D+01
    8.641800000000D+04 4.000000000000D+00
30 25 11 10  2  0  0.0 1.983856782317D-05 1.159605744760D-11 0.000000000000D+00
    6.700000000000D+01-6.906250000000D+00 5.214502919263D-09-4.328286347643D-01
   -2.272427082062D-07 7.693910622038D-03 7.612630724907D-06 5.153587810516D+03
    9.360000000000D+04 5.215406417847D-08 1.918327139854D+00 1.005828380585D-07
    9.355834999967D-01 2.201250000000D+02-2.354557973476D+00-8.367134239012D-09
    3.950164540209D-10 1.000000000000D+00 2.392000000000D+03 0.000000000000D+00
    2.000000000000D+00 0.000000000000D+00 4.190951585770D-09 6.700000000000D+01
    8.641800000000D+04 4.000000000000D+00
17 25 11 10  2  0  0.0 3.845943138003D-05-1.341504685115D-11 0.000000000000D+00
    7.100000000000D+01 9.009375000000D+01 4.355538568521D-09 2.426896447601D+00
    4.814937710762D-06 1.313265785575D-02 8.950009942055D-06 5.153791191101D+03
    9.360000000000D+04 1.545995473862D-07-2.205208947644D+00 2.235174179077D-08
    9.609697485673D-01 2.014062500000D+02-1.166421720775D+00-7.696392014191D-09
   -3.478716331070D-10 1.000000000000D+00 2.392000000000D+03 0.000000000000D+00
    2.000000000000D+00 0.000000000000D+00-1.117587089539D-08 7.100000000000D+01
    8.641800000000D+04 4.000000000000D+00
15 25 11 10  2  0  0.0 3.563049249351D-04 3.637978807092D-12 0.000000000000D+00
    6.200000000000D+01-9.703125000000D+01 4.726982612085D-09 1.519026357979D+00
   -5.373731255531D-06 1.668016018812D-02 8.482486009598D-06 5.153655748367D+03
    9.360000000000D+04-3.166496753693D-08 7.110950224762D-01-4.153698682785D-07
    9.412585937128D-01 2.095000000000D+02 1.481304412583D+00-8.167483065596D-09
    1.546492989069D-10 1.000000000000D+00 2.392000000000D+03 0.000000000000D+00
    2.000000000000D+00 0.000000000000D+00-1.071020960808D-08 6.200000000000D+01
    8.641800000000D+04 4.000000000000D+00
 7 25 11 10  2  0  0.0-1.043295487761D-04-5.684341886081D-12 0.000000000000D+00
    6.100000000000D+01-8.750000000000D+00 4.993779439530D-09-3.302947707658D-01
   -2.812594175339D-07 1.994446024764D-02 8.003786206245D-06 5.153659633636D+03
    9.360000000000D+04-8.381903171539D-08 1.925657137703D+00 2.700835466385D-07
    9.503526279216D-01 2.251250000000D+02-2.017944375300D+00-8.441065889990D-09
    4.218032840856D-10 1.000000000000D+00 2.392000000000D+03 0.000000000000D+00
    2.000000000000D+00 0.000000000000D+00-1.071020960808D-08 6.100000000000D+01
    8.641800000000D+04 4.000000000000D+00
19 25 11 10  2  0  0.0 6.739972159266D-04 2.273736754432D-12 0.000000000000D+00
    8.700000000000D+01 8.556250000000D+01 4.450899683552D-09-1.972500232495D+00
    4.433095455170D-06 1.085026876535D-02 9.188428521156D-06 5.153690662384D+03
    9.360000000000D+04-1.750886440277D-07-2.161228518746D+00-1.583248376846D-07
    9.601378148510D-01 2.041562500000D+02 2.892626703913D+00-7.939616431179D-09
   -1.250052069686D-10 1.000000000000D+00 2.392000000000D+03 0.000000000000D+00
    2.000000000000D+00 0.000000000000D+00-1.536682248116D-08 8.700000000000D+01
    8.641800000000D+04 4.000000000000D+00
23 25 11 10  2  0  0.0 5.698478780687D-04 5.456968210638D-12 0.000000000000D+00
    1.220000000000D+02-7.956250000000D+01 4.004095358072D-09-6.105921744606D-01
   -4.250556230545D-06 5.889063933864D-03 3.654509782791D-06 5.153686935425D+03
    9.360000000000D+04 1.080334186554D-07-1.899420430485D-01 0.000000000000D+00
    9.868113377046D-01 3.240312500000D+02-2.791839299313D+00-8.055335537058D-09
   -2.317953694933D-10 1.000000000000D+00 2.392000000000D+03 0.000000000000D+00
    2.000000000000D+00 0.000000000000D+00-8.381903171539D-09 1.220000000000D+02
    8.641800000000D+04 4.000000000000D+00
24 25 11 10  2  0  0.0-2.425289712846D-04 1.307398633799D-11 0.000000000000D+00
    7.600000000000D+01-2.187500000000D-01 5.312721296167D-09 6.528517303979D-01
   -5.587935447693D-08 1.769202691503D-02 8.177012205124D-06 5.153654083252D+03
    9.360000000000D+04-2.961605787277D-07 1.819146521086D+00 2.793967723846D-08
    9.342502652164D-01 2.114375000000D+02 1.113870315250D+00-8.550713314388D-09
    2.635824078367D-10 1.000000000000D+00 2.392000000000D+03 0.000000000000D+00
    2.000000000000D+00 0.000000000000D+00 2.328306436539D-09 7.600000000000D+01
    8.671800000000D+04 4.000000000000D+00
 1 25 11 10  2  0  0.0 3.543533384800D-04 0.000000000000D+00 0.000000000000D+00
    5.300000000000D+01 8.065625000000D+01 4.691266838666D-09 1.508161416085D+00
    4.256144165993D-06 1.000195741653D-03 3.118067979813D-06 5.153651622772D+03
    9.360000000000D+04 7.450580596924D-08-1.139231997037D+00-4.097819328308D-08
    9.585415605664D-01 3.144062500000D+02-1.040880506108D-01-8.435351366243D-09
    1.000041655749D-11 1.000000000000D+00 2.392000000000D+03 0.000000000000D+00
    2.000000000000D+00 0.000000000000D+00-8.847564458847D-09 3.090000000000D+02
    8.770800000000D+04 4.000000000000D+00
10 25 11 10  2  0  0.0-5.594026297331D-04-5.343281372916D-12 0.000000000000D+00
    9.400000000000D+01-9.400000000000D+01 3.733012637817D-09-1.741683064571D+00
   -4.839152097702D-06 1.079943357036D-02 3.477558493614D-06 5.153652135849D+03
    9.360000000000D+04 1.210719347000D-07-1.584072009929D-01-1.154839992523D-07
    9.917902345585D-01 3.277500000000D+02-2.299844614948D+00-7.800682072577D-09
   -1.442917246152D-10 1.000000000000D+00 2.392000000000D+03 0.000000000000D+00
    2.800000000000D+00 0.000000000000D+00 2.328306436539D-09 9.400000000000D+01
    8.856600000000D+04 4.000000000000D+00
